start=new Date('2023-01-04T00:00:00.000Z').valueOf();
sats=[{"CLASSIFICATION_TYPE":"U","LAUNCH_DATE":"2022-07-07","TLE_LINE2":"2 53036  53.2179 245.7642 0002151  36.0241 324.0896 15.08841630 28324","PERIOD":"95.437","RA_OF_ASC_NODE":"245.7642","EPOCH":"2023-01-03T18:09:38.554272","REF_FRAME":"TEME","ELEMENT_SET_NO":"999","FILE":"3730899","CENTER_NAME":"EARTH","MEAN_MOTION_DDOT":"0.0000000000000","ARG_OF_PERICENTER":"36.0241","RCS_SIZE":"MEDIUM","APOAPSIS":"541.228","OBJECT_NAME":"STARLINK-4155","EPHEMERIS_TYPE":"0","MEAN_MOTION_DOT":"0.00006531","ECCENTRICITY":"0.00021510","COUNTRY_CODE":"US","TIME_SYSTEM":"UTC","TLE_LINE1":"1 53036U 22076BC  23003.75669623  .00006531  00000-0  42802-3 0  9990","BSTAR":"0.00042802000000","MEAN_ELEMENT_THEORY":"SGP4","NORAD_CAT_ID":"53036","SITE":"AFETR","SEMIMAJOR_AXIS":"6917.875","MEAN_MOTION":"15.08841630","GP_ID":"222089494","PERIAPSIS":"538.252","REV_AT_EPOCH":"2832","MEAN_ANOMALY":"324.0896","DECAY_DATE":null,"INCLINATION":"53.2179","OBJECT_ID":"2022-076BC","OBJECT_TYPE":"PAYLOAD"},{"SITE":"AFETR","NORAD_CAT_ID":"53037","SEMIMAJOR_AXIS":"6917.907","TLE_LINE1":"1 53037U 22076BD  23003.09060790  .00000929  00000-0  76494-4 0  9998","TIME_SYSTEM":"UTC","BSTAR":"0.00007649400000","MEAN_ELEMENT_THEORY":"SGP4","DECAY_DATE":null,"INCLINATION":"53.2181","OBJECT_ID":"2022-076BD","OBJECT_TYPE":"PAYLOAD","MEAN_MOTION":"15.08831220","GP_ID":"222114863","PERIAPSIS":"538.635","REV_AT_EPOCH":"2776","MEAN_ANOMALY":"292.1111","RA_OF_ASC_NODE":"248.7417","EPOCH":"2023-01-03T02:10:28.522560","ELEMENT_SET_NO":"999","REF_FRAME":"TEME","CLASSIFICATION_TYPE":"U","LAUNCH_DATE":"2022-07-07","TLE_LINE2":"2 53037  53.2181 248.7417 0001644  68.0055 292.1111 15.08831220 27761","PERIOD":"95.438","APOAPSIS":"540.910","EPHEMERIS_TYPE":"0","MEAN_MOTION_DOT":"0.00000929","OBJECT_NAME":"STARLINK-4153","ECCENTRICITY":"0.00016440","COUNTRY_CODE":"US","FILE":"3730926","CENTER_NAME":"EARTH","ARG_OF_PERICENTER":"68.0055","MEAN_MOTION_DDOT":"0.0000000000000","RCS_SIZE":"LARGE"},{"EPHEMERIS_TYPE":"0","MEAN_MOTION_DOT":"0.00000839","OBJECT_NAME":"STARLINK-4156","APOAPSIS":"541.207","COUNTRY_CODE":"US","ECCENTRICITY":"0.00021100","ARG_OF_PERICENTER":"45.5653","MEAN_MOTION_DDOT":"0.0000000000000","FILE":"3730926","CENTER_NAME":"EARTH","RCS_SIZE":"LARGE","RA_OF_ASC_NODE":"248.7618","EPOCH":"2023-01-03T02:05:09.978720","ELEMENT_SET_NO":"999","REF_FRAME":"TEME","CLASSIFICATION_TYPE":"U","LAUNCH_DATE":"2022-07-07","PERIOD":"95.438","TLE_LINE2":"2 53038  53.2177 248.7618 0002110  45.5653 314.5511 15.08839304 27767","INCLINATION":"53.2177","DECAY_DATE":null,"OBJECT_TYPE":"PAYLOAD","OBJECT_ID":"2022-076BE","GP_ID":"222115089","REV_AT_EPOCH":"2776","PERIAPSIS":"538.288","MEAN_MOTION":"15.08839304","MEAN_ANOMALY":"314.5511","SITE":"AFETR","NORAD_CAT_ID":"53038","SEMIMAJOR_AXIS":"6917.883","TLE_LINE1":"1 53038U 22076BE  23003.08692105  .00000839  00000-0  70820-4 0  9996","TIME_SYSTEM":"UTC","MEAN_ELEMENT_THEORY":"SGP4","BSTAR":"0.00007082000000"},{"RCS_SIZE":"LARGE","CENTER_NAME":"EARTH","FILE":"3730926","MEAN_MOTION_DDOT":"0.0000000000000","ARG_OF_PERICENTER":"15.3661","ECCENTRICITY":"0.00023290","COUNTRY_CODE":"US","APOAPSIS":"564.645","MEAN_MOTION_DOT":"0.00001379","EPHEMERIS_TYPE":"0","OBJECT_NAME":"STARLINK-4362","TLE_LINE2":"2 53043  97.6524 186.9243 0002329  15.3661 344.7634 15.01254494 26702","PERIOD":"95.920","CLASSIFICATION_TYPE":"U","LAUNCH_DATE":"2022-07-11","ELEMENT_SET_NO":"999","REF_FRAME":"TEME","RA_OF_ASC_NODE":"186.9243","EPOCH":"2023-01-03T11:48:14.920704","MEAN_ANOMALY":"344.7634","MEAN_MOTION":"15.01254494","REV_AT_EPOCH":"2670","GP_ID":"222116215","PERIAPSIS":"561.412","OBJECT_ID":"2022-077A","OBJECT_TYPE":"PAYLOAD","INCLINATION":"97.6524","DECAY_DATE":null,"BSTAR":"0.00011196000000","MEAN_ELEMENT_THEORY":"SGP4","TLE_LINE1":"1 53043U 22077A   23003.49183936  .00001379  00000-0  11196-3 0  9995","TIME_SYSTEM":"UTC","SEMIMAJOR_AXIS":"6941.164","SITE":"AFWTR","NORAD_CAT_ID":"53043"},{"BSTAR":"0.00008426300000","MEAN_ELEMENT_THEORY":"SGP4","TIME_SYSTEM":"UTC","TLE_LINE1":"1 53044U 22077B   23003.48813952  .00001023  00000-0  84263-4 0  9995","SEMIMAJOR_AXIS":"6941.159","NORAD_CAT_ID":"53044","SITE":"AFWTR","MEAN_ANOMALY":"1.6954","MEAN_MOTION":"15.01256100","GP_ID":"222114841","REV_AT_EPOCH":"2670","PERIAPSIS":"562.283","OBJECT_ID":"2022-077B","OBJECT_TYPE":"PAYLOAD","INCLINATION":"97.6531","DECAY_DATE":null,"TLE_LINE2":"2 53044  97.6531 186.9151 0001068 358.4267   1.6954 15.01256100 26701","PERIOD":"95.920","CLASSIFICATION_TYPE":"U","LAUNCH_DATE":"2022-07-11","REF_FRAME":"TEME","ELEMENT_SET_NO":"999","RA_OF_ASC_NODE":"186.9151","EPOCH":"2023-01-03T11:42:55.254528","RCS_SIZE":"LARGE","CENTER_NAME":"EARTH","FILE":"3730926","MEAN_MOTION_DDOT":"0.0000000000000","ARG_OF_PERICENTER":"358.4267","ECCENTRICITY":"0.00010680","COUNTRY_CODE":"US","APOAPSIS":"563.765","OBJECT_NAME":"STARLINK-4349","EPHEMERIS_TYPE":"0","MEAN_MOTION_DOT":"0.00001023"},{"BSTAR":"0.00006808300000","MEAN_ELEMENT_THEORY":"SGP4","TLE_LINE1":"1 53045U 22077C   23003.49369431  .00000815  00000-0  68083-4 0  9995","TIME_SYSTEM":"UTC","SEMIMAJOR_AXIS":"6941.156","SITE":"AFWTR","NORAD_CAT_ID":"53045","MEAN_ANOMALY":"327.4956","MEAN_MOTION":"15.01257165","REV_AT_EPOCH":"2670","GP_ID":"222115338","PERIAPSIS":"561.045","OBJECT_ID":"2022-077C","OBJECT_TYPE":"PAYLOAD","INCLINATION":"97.6524","DECAY_DATE":null,"TLE_LINE2":"2 53045  97.6524 186.9068 0002846  32.6444 327.4956 15.01257165 26707","PERIOD":"95.920","LAUNCH_DATE":"2022-07-11","CLASSIFICATION_TYPE":"U","ELEMENT_SET_NO":"999","REF_FRAME":"TEME","RA_OF_ASC_NODE":"186.9068","EPOCH":"2023-01-03T11:50:55.188384","RCS_SIZE":"LARGE","FILE":"3730926","CENTER_NAME":"EARTH","ARG_OF_PERICENTER":"32.6444","MEAN_MOTION_DDOT":"0.0000000000000","ECCENTRICITY":"0.00028460","COUNTRY_CODE":"US","APOAPSIS":"564.996","EPHEMERIS_TYPE":"0","MEAN_MOTION_DOT":"0.00000815","OBJECT_NAME":"STARLINK-4350"},{"RCS_SIZE":"LARGE","CENTER_NAME":"EARTH","FILE":"3730759","ARG_OF_PERICENTER":"358.0095","MEAN_MOTION_DDOT":"0.0000000000000","ECCENTRICITY":"0.00002870","COUNTRY_CODE":"US","APOAPSIS":"563.249","OBJECT_NAME":"STARLINK-4331","EPHEMERIS_TYPE":"0","MEAN_MOTION_DOT":"0.00000954","TLE_LINE2":"2 53046  97.6516 187.1816 0000287 358.0095   2.1128 15.01247773 27328","PERIOD":"95.920","LAUNCH_DATE":"2022-07-11","CLASSIFICATION_TYPE":"U","REF_FRAME":"TEME","ELEMENT_SET_NO":"999","RA_OF_ASC_NODE":"187.1816","EPOCH":"2023-01-03T18:04:10.410528","MEAN_ANOMALY":"2.1128","MEAN_MOTION":"15.01247773","GP_ID":"222085892","PERIAPSIS":"562.850","REV_AT_EPOCH":"2732","OBJECT_ID":"2022-077D","OBJECT_TYPE":"PAYLOAD","INCLINATION":"97.6516","DECAY_DATE":null,"BSTAR":"0.00007889400000","MEAN_ELEMENT_THEORY":"SGP4","TIME_SYSTEM":"UTC","TLE_LINE1":"1 53046U 22077D   23003.75289827  .00000954  00000-0  78894-4 0  9990","SEMIMAJOR_AXIS":"6941.185","NORAD_CAT_ID":"53046","SITE":"AFWTR"},{"SEMIMAJOR_AXIS":"6941.149","NORAD_CAT_ID":"53047","SITE":"AFWTR","BSTAR":"0.00017934000000","MEAN_ELEMENT_THEORY":"SGP4","TIME_SYSTEM":"UTC","TLE_LINE1":"1 53047U 22077E   23003.21781891  .00002245  00000-0  17934-3 0  9992","OBJECT_ID":"2022-077E","OBJECT_TYPE":"PAYLOAD","INCLINATION":"97.6528","DECAY_DATE":null,"MEAN_ANOMALY":"176.8815","MEAN_MOTION":"15.01259358","PERIAPSIS":"562.747","GP_ID":"222115787","REV_AT_EPOCH":"2666","REF_FRAME":"TEME","ELEMENT_SET_NO":"999","EPOCH":"2023-01-03T05:13:39.553824","RA_OF_ASC_NODE":"186.6494","TLE_LINE2":"2 53047  97.6528 186.6494 0000385 183.2407 176.8815 15.01259358 26662","PERIOD":"95.919","LAUNCH_DATE":"2022-07-11","CLASSIFICATION_TYPE":"U","ECCENTRICITY":"0.00003850","COUNTRY_CODE":"US","APOAPSIS":"563.281","OBJECT_NAME":"STARLINK-4352","MEAN_MOTION_DOT":"0.00002245","EPHEMERIS_TYPE":"0","RCS_SIZE":"LARGE","CENTER_NAME":"EARTH","FILE":"3730926","MEAN_MOTION_DDOT":"0.0000000000000","ARG_OF_PERICENTER":"183.2407"},{"CLASSIFICATION_TYPE":"U","LAUNCH_DATE":"2022-07-11","TLE_LINE2":"2 53048  97.6521 186.6525 0000197 113.3894 246.7351 15.01258311 26655","PERIOD":"95.920","EPOCH":"2023-01-03T05:14:00.657024","RA_OF_ASC_NODE":"186.6525","REF_FRAME":"TEME","ELEMENT_SET_NO":"999","CENTER_NAME":"EARTH","FILE":"3730926","ARG_OF_PERICENTER":"113.3894","MEAN_MOTION_DDOT":"0.0000000000000","RCS_SIZE":"LARGE","APOAPSIS":"563.154","OBJECT_NAME":"STARLINK-4355","MEAN_MOTION_DOT":"0.00000663","EPHEMERIS_TYPE":"0","ECCENTRICITY":"0.00001970","COUNTRY_CODE":"US","TIME_SYSTEM":"UTC","TLE_LINE1":"1 53048U 22077F   23003.21806316  .00000663  00000-0  56232-4 0  9990","BSTAR":"0.00005623200000","MEAN_ELEMENT_THEORY":"SGP4","NORAD_CAT_ID":"53048","SITE":"AFWTR","SEMIMAJOR_AXIS":"6941.152","MEAN_MOTION":"15.01258311","GP_ID":"222115316","PERIAPSIS":"562.880","REV_AT_EPOCH":"2665","MEAN_ANOMALY":"246.7351","INCLINATION":"97.6521","DECAY_DATE":null,"OBJECT_ID":"2022-077F","OBJECT_TYPE":"PAYLOAD"},{"NORAD_CAT_ID":"53049","SITE":"AFWTR","SEMIMAJOR_AXIS":"6941.175","TIME_SYSTEM":"UTC","TLE_LINE1":"1 53049U 22077G   23003.74573345  .00000982  00000-0  81047-4 0  9998","BSTAR":"0.00008104700000","MEAN_ELEMENT_THEORY":"SGP4","DECAY_DATE":null,"INCLINATION":"97.6535","OBJECT_ID":"2022-077G","OBJECT_TYPE":"PAYLOAD","MEAN_MOTION":"15.01250826","GP_ID":"222086180","PERIAPSIS":"562.402","REV_AT_EPOCH":"2673","MEAN_ANOMALY":"160.3103","RA_OF_ASC_NODE":"187.1652","EPOCH":"2023-01-03T17:53:51.370080","REF_FRAME":"TEME","ELEMENT_SET_NO":"999","CLASSIFICATION_TYPE":"U","LAUNCH_DATE":"2022-07-11","TLE_LINE2":"2 53049  97.6535 187.1652 0000919 199.8086 160.3103 15.01250826 26730","PERIOD":"95.920","APOAPSIS":"563.678","OBJECT_NAME":"STARLINK-4345","MEAN_MOTION_DOT":"0.00000982","EPHEMERIS_TYPE":"0","ECCENTRICITY":"0.00009190","COUNTRY_CODE":"US","FILE":"3730773","CENTER_NAME":"EARTH","MEAN_MOTION_DDOT":"0.0000000000000","ARG_OF_PERICENTER":"199.8086","RCS_SIZE":"LARGE"}];
